COSMOS 2242             
1 22626U 93024A   25355.46407910  .00001654  00000+0  14439-3 0  9996
2 22626  82.5186 341.5053 0015537 202.8193 157.2340 14.96138900768696
SL-16 R/B               
1 22803U 93059B   25355.20196804  .00000142  00000+0  94208-4 0  9994
2 22803  70.9879 176.6412 0018397 323.7537  36.2339 14.17213652668415
ARIANE 40 R/B           
1 22830U 93061H   25355.41726668  .00000206  00000+0  91260-4 0  9993
2 22830  98.5065  60.7890 0011349 151.2382 208.9430 14.32806728682890
COSMOS 2278             
1 23087U 94023A   25355.37654278 -.00000123  00000+0 -39757-4 0  9992
2 23087  71.0534 338.9407 0007915 164.3785 195.7584 14.14348144633737
SL-16 R/B               
1 23088U 94023B   25355.10520453 -.00000232  00000+0 -95425-4 0  9996
2 23088  70.9988 235.9187 0001857   7.9271 352.1881 14.15001225634974
ARIANE 40+ R/B          
1 23561U 95021B   25355.48379279  .00000253  00000+0  94739-4 0  9998
2 23561  98.4640  62.9669 0007044  25.7789 345.2089 14.39701620607996
SL-16 R/B               
1 24298U 96051B   25355.41220722 -.00000047  00000+0  15294-5 0  9993
2 24298  70.7595 340.9265 0019480 250.7405 109.1608 14.12397302510591
ORBVIEW 2 (SEASTAR)     
1 24883U 97037A   25355.34969070  .00000215  00000+0  91055-4 0  9990
2 24883  98.8461 152.6411 0001329 305.9563  54.1498 14.35422800497234
